[{"OBJECT_NAME":"STARLINK-11424 [DTC]","OBJECT_ID":"2024-209L","EPOCH":"2026-03-09T21:46:53.621184","MEAN_MOTION":15.69916651,"ECCENTRICITY":0.00019513,"INCLINATION":53.157,"RA_OF_ASC_NODE":10.0755,"ARG_OF_PERICENTER":137.5423,"MEAN_ANOMALY":222.5746,"EPHEMERIS_TYPE":0,"CLASSIFICATION_TYPE":"U","NORAD_CAT_ID":61949,"ELEMENT_SET_NO":999,"REV_AT_EPOCH":7671,"BSTAR":0.0023945798,"MEAN_MOTION_DOT":0.00302938,"MEAN_MOTION_DDOT":0},{"OBJECT_NAME":"CZ-2D DEB","OBJECT_ID":"2005-024K","EPOCH":"2026-03-07T20:58:14.771712","MEAN_MOTION":15.70813446,"ECCENTRICITY":0.0005756,"INCLINATION":97.1809,"RA_OF_ASC_NODE":100.1703,"ARG_OF_PERICENTER":144.4044,"MEAN_ANOMALY":215.7604,"EPHEMERIS_TYPE":0,"CLASSIFICATION_TYPE":"U","NORAD_CAT_ID":35271,"ELEMENT_SET_NO":999,"REV_AT_EPOCH":8871,"BSTAR":0.00070506615,"MEAN_MOTION_DOT":0.00088213,"MEAN_MOTION_DDOT":0}]
